COSMOS 1933             
1 18958U 88020A   25364.36250542  .00008063  00000+0  40321-3 0  9995
2 18958  82.5136 319.4649 0006452  83.8804 276.3164 15.17275941 39713
SL-3 R/B                
1 19046U 88032B   25364.58383055  .00008027  00000+0  38346-3 0  9991
2 19046  97.5092 343.1845 0028283 113.1168 247.3052 15.18940865 41618
SL-16 R/B               
1 19120U 88039B   25364.64474511  .00000075  00000+0  58019-4 0  9991
2 19120  71.0125 214.5405 0019546  85.6175 274.7183 14.19600146948587
COSMOS 1953             
1 19210U 88050A   25363.34859606  .00008063  00000+0  30114-3 0  9992
2 19210  82.5080 228.9139 0012535  18.6006 341.5688 15.27141359 27045
SL-8 R/B                
1 19257U 88053B   25364.43025104  .00000428  00000+0  14735-3 0  9993
2 19257  74.0463 240.1166 0018988  77.5831  95.0791 14.38871272966639
COSMOS 1975             
1 19573U 88093A   25364.54416755  .00011406  00000+0  43140-3 0  9996
2 19573  82.5189 187.0006 0012839  56.8754 303.3715 15.26751712  8850
SL-14 R/B               
1 19574U 88093B   25364.49928417  .00000921  00000+0  10353-3 0  9994
2 19574  82.5319 107.0020 0019223 266.8372 204.6956 14.85571576990769
SL-16 R/B               
1 19650U 88102B   25364.25862285 -.00000100  00000+0 -26533-4 0  9993
2 19650  71.0006 297.5821 0012053 121.7765 238.4534 14.16142923917066
INTERCOSMOS 24          
1 20261U 89080A   25364.46014152  .00000913  00000+0  25968-3 0  9994
2 20261  82.6063 149.4329 1188993  93.4313 280.3207 12.59469166658080
SL-14 R/B               
1 20262U 89080C   25364.58538307  .00000502  00000+0  14927-3 0  9998
2 20262  82.5911 217.5634 1230271 342.8074  13.4581 12.50428009651513
DELTA 1 R/B             
1 20323U 89089B   25364.57433280  .00000661  00000+0  17242-3 0  9997
2 20323  97.0741 217.9847 0068672 342.2565  17.6236 14.50589040885714
ARIANE 40 R/B           
1 20443U 90005H   25364.59922254  .00000515  00000+0  17749-3 0  9996
2 20443  98.3220  62.2705 0010982  57.1180 303.1064 14.39813122882866
