CCSDS_OMM_VERS = 2.0
CREATION_DATE  = 
ORIGINATOR     = 

OBJECT_NAME    = COSMOS 1933
OBJECT_ID      = 1988-020A
CENTER_NAME    = EARTH
REF_FRAME      = TEME
TIME_SYSTEM    = UTC
MEAN_ELEMENT_THEORY = SGP/SGP4

EPOCH          = 2025-12-30T08:42:00.468288
MEAN_MOTION    = 15.17275941
ECCENTRICITY   = .00064526
INCLINATION    = 82.5136
RA_OF_ASC_NODE = 319.4649
ARG_OF_PERICENTER = 83.8804
MEAN_ANOMALY   = 276.3164

EPHEMERIS_TYPE = 0
CLASSIFICATION_TYPE = U
NORAD_CAT_ID   = 18958
ELEMENT_SET_NO = 999
REV_AT_EPOCH   = 3971
BSTAR          = .40321473E-3
MEAN_MOTION_DOT = .8063E-4
MEAN_MOTION_DDOT = 0

CCSDS_OMM_VERS = 2.0
CREATION_DATE  = 
ORIGINATOR     = 

OBJECT_NAME    = SL-3 R/B
OBJECT_ID      = 1988-032B
CENTER_NAME    = EARTH
REF_FRAME      = TEME
TIME_SYSTEM    = UTC
MEAN_ELEMENT_THEORY = SGP/SGP4

EPOCH          = 2025-12-30T14:00:42.959520
MEAN_MOTION    = 15.18940865
ECCENTRICITY   = .00282832
INCLINATION    = 97.5092
RA_OF_ASC_NODE = 343.1845
ARG_OF_PERICENTER = 113.1168
MEAN_ANOMALY   = 247.3052

EPHEMERIS_TYPE = 0
CLASSIFICATION_TYPE = U
NORAD_CAT_ID   = 19046
ELEMENT_SET_NO = 999
REV_AT_EPOCH   = 4161
BSTAR          = .38346166E-3
MEAN_MOTION_DOT = .8027E-4
MEAN_MOTION_DDOT = 0

CCSDS_OMM_VERS = 2.0
CREATION_DATE  = 
ORIGINATOR     = 

OBJECT_NAME    = SL-16 R/B
OBJECT_ID      = 1988-039B
CENTER_NAME    = EARTH
REF_FRAME      = TEME
TIME_SYSTEM    = UTC
MEAN_ELEMENT_THEORY = SGP/SGP4

EPOCH          = 2025-12-30T15:28:25.977504
MEAN_MOTION    = 14.19600146
ECCENTRICITY   = .00195469
INCLINATION    = 71.0125
RA_OF_ASC_NODE = 214.5405
ARG_OF_PERICENTER = 85.6175
MEAN_ANOMALY   = 274.7183

EPHEMERIS_TYPE = 0
CLASSIFICATION_TYPE = U
NORAD_CAT_ID   = 19120
ELEMENT_SET_NO = 999
REV_AT_EPOCH   = 94858
BSTAR          = .58019141E-4
MEAN_MOTION_DOT = .75E-6
MEAN_MOTION_DDOT = 0

CCSDS_OMM_VERS = 2.0
CREATION_DATE  = 
ORIGINATOR     = 

OBJECT_NAME    = COSMOS 1953
OBJECT_ID      = 1988-050A
CENTER_NAME    = EARTH
REF_FRAME      = TEME
TIME_SYSTEM    = UTC
MEAN_ELEMENT_THEORY = SGP/SGP4

EPOCH          = 2025-12-29T08:21:58.699584
MEAN_MOTION    = 15.27141359
ECCENTRICITY   = .00125356
INCLINATION    = 82.5080
RA_OF_ASC_NODE = 228.9139
ARG_OF_PERICENTER = 18.6006
MEAN_ANOMALY   = 341.5688

EPHEMERIS_TYPE = 0
CLASSIFICATION_TYPE = U
NORAD_CAT_ID   = 19210
ELEMENT_SET_NO = 999
REV_AT_EPOCH   = 2704
BSTAR          = .30113736E-3
MEAN_MOTION_DOT = .8063E-4
MEAN_MOTION_DDOT = 0

CCSDS_OMM_VERS = 2.0
CREATION_DATE  = 
ORIGINATOR     = 

OBJECT_NAME    = SL-8 R/B
OBJECT_ID      = 1988-053B
CENTER_NAME    = EARTH
REF_FRAME      = TEME
TIME_SYSTEM    = UTC
MEAN_ELEMENT_THEORY = SGP/SGP4

EPOCH          = 2025-12-30T10:19:33.689856
MEAN_MOTION    = 14.38871272
ECCENTRICITY   = .00189887
INCLINATION    = 74.0463
RA_OF_ASC_NODE = 240.1166
ARG_OF_PERICENTER = 77.5831
MEAN_ANOMALY   = 95.0791

EPHEMERIS_TYPE = 0
CLASSIFICATION_TYPE = U
NORAD_CAT_ID   = 19257
ELEMENT_SET_NO = 999
REV_AT_EPOCH   = 96663
BSTAR          = .14735415E-3
MEAN_MOTION_DOT = .428E-5
MEAN_MOTION_DDOT = 0

CCSDS_OMM_VERS = 2.0
CREATION_DATE  = 
ORIGINATOR     = 

OBJECT_NAME    = COSMOS 1975
OBJECT_ID      = 1988-093A
CENTER_NAME    = EARTH
REF_FRAME      = TEME
TIME_SYSTEM    = UTC
MEAN_ELEMENT_THEORY = SGP/SGP4

EPOCH          = 2025-12-30T13:03:36.076320
MEAN_MOTION    = 15.26751712
ECCENTRICITY   = .00128396
INCLINATION    = 82.5189
RA_OF_ASC_NODE = 187.0006
ARG_OF_PERICENTER = 56.8754
MEAN_ANOMALY   = 303.3715

EPHEMERIS_TYPE = 0
CLASSIFICATION_TYPE = U
NORAD_CAT_ID   = 19573
ELEMENT_SET_NO = 999
REV_AT_EPOCH   = 885
BSTAR          = .43140049E-3
MEAN_MOTION_DOT = .11406E-3
MEAN_MOTION_DDOT = 0

CCSDS_OMM_VERS = 2.0
CREATION_DATE  = 
ORIGINATOR     = 

OBJECT_NAME    = SL-14 R/B
OBJECT_ID      = 1988-093B
CENTER_NAME    = EARTH
REF_FRAME      = TEME
TIME_SYSTEM    = UTC
MEAN_ELEMENT_THEORY = SGP/SGP4

EPOCH          = 2025-12-30T11:58:58.152288
MEAN_MOTION    = 14.85571576
ECCENTRICITY   = .00192237
INCLINATION    = 82.5319
RA_OF_ASC_NODE = 107.0020
ARG_OF_PERICENTER = 266.8372
MEAN_ANOMALY   = 204.6956

EPHEMERIS_TYPE = 0
CLASSIFICATION_TYPE = U
NORAD_CAT_ID   = 19574
ELEMENT_SET_NO = 999
REV_AT_EPOCH   = 99076
BSTAR          = .1035306E-3
MEAN_MOTION_DOT = .921E-5
MEAN_MOTION_DDOT = 0

CCSDS_OMM_VERS = 2.0
CREATION_DATE  = 
ORIGINATOR     = 

OBJECT_NAME    = SL-16 R/B
OBJECT_ID      = 1988-102B
CENTER_NAME    = EARTH
REF_FRAME      = TEME
TIME_SYSTEM    = UTC
MEAN_ELEMENT_THEORY = SGP/SGP4

EPOCH          = 2025-12-30T06:12:25.014240
MEAN_MOTION    = 14.16142923
ECCENTRICITY   = .00120534
INCLINATION    = 71.0006
RA_OF_ASC_NODE = 297.5821
ARG_OF_PERICENTER = 121.7765
MEAN_ANOMALY   = 238.4534

EPHEMERIS_TYPE = 0
CLASSIFICATION_TYPE = U
NORAD_CAT_ID   = 19650
ELEMENT_SET_NO = 999
REV_AT_EPOCH   = 91706
BSTAR          = -.26532581E-4
MEAN_MOTION_DOT = -.1E-5
MEAN_MOTION_DDOT = 0

CCSDS_OMM_VERS = 2.0
CREATION_DATE  = 
ORIGINATOR     = 

OBJECT_NAME    = INTERCOSMOS 24
OBJECT_ID      = 1989-080A
CENTER_NAME    = EARTH
REF_FRAME      = TEME
TIME_SYSTEM    = UTC
MEAN_ELEMENT_THEORY = SGP/SGP4

EPOCH          = 2025-12-30T11:02:36.227328
MEAN_MOTION    = 12.59469166
ECCENTRICITY   = .11889935
INCLINATION    = 82.6063
RA_OF_ASC_NODE = 149.4329
ARG_OF_PERICENTER = 93.4313
MEAN_ANOMALY   = 280.3207

EPHEMERIS_TYPE = 0
CLASSIFICATION_TYPE = U
NORAD_CAT_ID   = 20261
ELEMENT_SET_NO = 999
REV_AT_EPOCH   = 65808
BSTAR          = .25967643E-3
MEAN_MOTION_DOT = .913E-5
MEAN_MOTION_DDOT = 0

CCSDS_OMM_VERS = 2.0
CREATION_DATE  = 
ORIGINATOR     = 

OBJECT_NAME    = SL-14 R/B
OBJECT_ID      = 1989-080C
CENTER_NAME    = EARTH
REF_FRAME      = TEME
TIME_SYSTEM    = UTC
MEAN_ELEMENT_THEORY = SGP/SGP4

EPOCH          = 2025-12-30T14:02:57.097248
MEAN_MOTION    = 12.50428009
ECCENTRICITY   = .12302711
INCLINATION    = 82.5911
RA_OF_ASC_NODE = 217.5634
ARG_OF_PERICENTER = 342.8074
MEAN_ANOMALY   = 13.4581

EPHEMERIS_TYPE = 0
CLASSIFICATION_TYPE = U
NORAD_CAT_ID   = 20262
ELEMENT_SET_NO = 999
REV_AT_EPOCH   = 65151
BSTAR          = .14926982E-3
MEAN_MOTION_DOT = .502E-5
MEAN_MOTION_DDOT = 0

CCSDS_OMM_VERS = 2.0
CREATION_DATE  = 
ORIGINATOR     = 

OBJECT_NAME    = DELTA 1 R/B
OBJECT_ID      = 1989-089B
CENTER_NAME    = EARTH
REF_FRAME      = TEME
TIME_SYSTEM    = UTC
MEAN_ELEMENT_THEORY = SGP/SGP4

EPOCH          = 2025-12-30T13:47:02.353920
MEAN_MOTION    = 14.50589040
ECCENTRICITY   = .00686723
INCLINATION    = 97.0741
RA_OF_ASC_NODE = 217.9847
ARG_OF_PERICENTER = 342.2565
MEAN_ANOMALY   = 17.6236

EPHEMERIS_TYPE = 0
CLASSIFICATION_TYPE = U
NORAD_CAT_ID   = 20323
ELEMENT_SET_NO = 999
REV_AT_EPOCH   = 88571
BSTAR          = .17241759E-3
MEAN_MOTION_DOT = .661E-5
MEAN_MOTION_DDOT = 0

CCSDS_OMM_VERS = 2.0
CREATION_DATE  = 
ORIGINATOR     = 

OBJECT_NAME    = ARIANE 40 R/B
OBJECT_ID      = 1990-005H
CENTER_NAME    = EARTH
REF_FRAME      = TEME
TIME_SYSTEM    = UTC
MEAN_ELEMENT_THEORY = SGP/SGP4

EPOCH          = 2025-12-30T14:22:52.827456
MEAN_MOTION    = 14.39813122
ECCENTRICITY   = .00109827
INCLINATION    = 98.3220
RA_OF_ASC_NODE = 62.2705
ARG_OF_PERICENTER = 57.1180
MEAN_ANOMALY   = 303.1064

EPHEMERIS_TYPE = 0
CLASSIFICATION_TYPE = U
NORAD_CAT_ID   = 20443
ELEMENT_SET_NO = 999
REV_AT_EPOCH   = 88286
BSTAR          = .17749414E-3
MEAN_MOTION_DOT = .515E-5
MEAN_MOTION_DDOT = 0

